[{"OBJECT_NAME":"OBJECT A","OBJECT_ID":"2023-085A","EPOCH":"2026-03-09T21:42:39.504096","MEAN_MOTION":15.28003151,"ECCENTRICITY":0.00073195,"INCLINATION":97.4858,"RA_OF_ASC_NODE":178.2033,"ARG_OF_PERICENTER":32.2499,"MEAN_ANOMALY":327.9186,"EPHEMERIS_TYPE":0,"CLASSIFICATION_TYPE":"U","NORAD_CAT_ID":57004,"ELEMENT_SET_NO":999,"REV_AT_EPOCH":15139,"BSTAR":0.00063583858,"MEAN_MOTION_DOT":0.0001733,"MEAN_MOTION_DDOT":0},{"OBJECT_NAME":"STARLINK-31332","OBJECT_ID":"2024-076C","EPOCH":"2026-03-09T05:18:37.753920","MEAN_MOTION":15.27582085,"ECCENTRICITY":0.0002172,"INCLINATION":43.0076,"RA_OF_ASC_NODE":11.4224,"ARG_OF_PERICENTER":266.0667,"MEAN_ANOMALY":93.9936,"EPHEMERIS_TYPE":0,"CLASSIFICATION_TYPE":"U","NORAD_CAT_ID":59566,"ELEMENT_SET_NO":999,"REV_AT_EPOCH":10643,"BSTAR":-3.0486869e-5,"MEAN_MOTION_DOT":-1.101e-5,"MEAN_MOTION_DDOT":0}]
